IRIDIUM 64 [+]          
1 25287U 98021C   16194.45372761 -.00000020  00000-0 -14336-4 0  9995
2 25287  86.3949   5.9729 0001960  87.7922 272.3498 14.34213202956308
IRIDIUM 65 [+]          
1 25288U 98021D   16194.46007178 -.00000030  00000-0 -17902-4 0  9997
2 25288  86.3948   5.8798 0002169  82.5855 277.5588 14.34212691956323
IRIDIUM 66 [+]          
1 25289U 98021E   16194.47189331  .00000026  00000-0  21077-5 0  9993
2 25289  86.3953   5.7809 0002277  88.9802 299.4355 14.34213301956328
IRIDIUM 67 [+]          
1 25290U 98021F   16194.47275964  .00000025  00000-0  20324-5 0  9996
2 25290  86.3954   5.9120 0002209  89.9144 270.2305 14.34213295956339
IRIDIUM 68 [+]          
1 25291U 98021G   16194.47910506 -.00000022  00000-0 -14953-4 0  9994
2 25291  86.3950   6.0218 0002224  86.6973 273.4477 14.34212916956308
IRIDIUM 69 [-]          
1 25319U 98026A   16194.54762370  .00000125  00000-0  34403-4 0  9996
2 25319  86.3977  28.6051 0001557  31.4818 328.6473 14.38600814954205
IRIDIUM 71 [-]          
1 25320U 98026B   16194.49635068  .00000151  00000-0  42364-4 0  9999
2 25320  86.3960  24.6796 0003554  57.1224 303.0316 14.39014040954615
IRIDIUM 70 [+]          
1 25342U 98032A   16194.50895296  .00000025  00000-0  18864-5 0  9992
2 25342  86.3960   6.2348 0002315  87.4767 295.8323 14.34213289950411
IRIDIUM 72 [+]          
1 25343U 98032B   16194.49568311  .00000025  00000-0  19083-5 0  9990
2 25343  86.3954   5.8742 0002233  89.4431 290.8125 14.34213259950419
IRIDIUM 73 [-]          
1 25344U 98032C   16194.51822904  .00000179  00000-0  41824-4 0  9992
2 25344  86.4431 346.4785 0002906  98.5967 261.5567 14.48951547958365
IRIDIUM 74 [S]          
1 25345U 98032D   16194.08756918 -.00000002  00000-0 -67330-5 0  9994
2 25345  86.4460   6.3844 0001966  85.5315  52.9764 14.42946870953705
IRIDIUM 75 [+]          
1 25346U 98032E   16194.50268262  .00000025  00000-0  18629-5 0  9992
2 25346  86.3957   6.1117 0002222  89.8305 293.8205 14.34213510950981
IRIDIUM 3 [+]           
1 25431U 98048A   16194.09361640 -.00000006  00000-0 -92259-5 0  9994
2 25431  86.3944  37.8876 0002234  80.2557  73.4203 14.34217927936869
IRIDIUM 76 [+]          
1 25432U 98048B   16194.50629058 -.00000003  00000-0 -81955-5 0  9999
2 25432  86.3941  37.4802 0002251  85.5028 299.3594 14.34217754936918
IRIDIUM 82 [+]          
1 25467U 98051A   16194.40097199  .00000099  00000-0  28442-4 0  9999
2 25467  86.3996 164.1993 0002099  81.7444 278.3990 14.34214191937915
IRIDIUM 81 [+]          
1 25468U 98051B   16194.46439820  .00000126  00000-0  38053-4 0  9997
2 25468  86.3983 163.7894 0002287  87.8764 272.2694 14.34214580934146
IRIDIUM 80 [+]          
1 25469U 98051C   16194.47084100  .00000077  00000-0  20489-4 0  9995
2 25469  86.3987 164.0571 0002260  91.2823  40.1593 14.34216838934141
IRIDIUM 77 [+]          
1 25471U 98051E   16194.47989343  .00000081  00000-0  21683-4 0  9993
2 25471  86.3978 163.6561 0002407  86.2429  59.1833 14.34216784939341
IRIDIUM 2 [-]           
1 25527U 98066A   16194.51476077  .00002207  00000-0  11506-3 0  9995
2 25527  85.5300 232.5426 0007122 254.1147 105.9307 15.15374883966410
IRIDIUM 86 [+]          
1 25528U 98066B   16194.48002572  .00000209  00000-0  67444-4 0  9990
2 25528  86.3980 131.8534 0002447  80.7865 279.3607 14.34218236930677
IRIDIUM 84 [+]          
1 25530U 98066D   16194.37220155  .00000204  00000-0  65955-4 0  9990
2 25530  86.3982 132.0574 0002265  85.5310 274.6144 14.34218750928295
IRIDIUM 83 [+]          
1 25531U 98066E   16194.47368455  .00000209  00000-0  67457-4 0  9992
2 25531  86.3985 132.1266 0002276  86.0146 274.1310 14.34221805925666
IRIDIUM 20 [+]          
1 25577U 98074A   16194.46344497 -.00000004  00000-0 -84166-5 0  9992
2 25577  86.3940  37.4241 0002138  82.1457 277.9981 14.34217733919748
IRIDIUM 11 [+]          
1 25578U 98074B   16194.55151770  .00000015  00000-0 -16728-5 0  9993
2 25578  86.3942  37.5921 0002117  84.5339 304.6085 14.34217802928727
IRIDIUM 14 [S]          
1 25777U 99032A   16194.45330051 -.00000010  00000-0 -10640-4 0  9991
2 25777  86.3951   5.9680 0002222  82.7078 307.7669 14.34213469905986
IRIDIUM 21 [+]          
1 25778U 99032B   16194.48542168 -.00000027  00000-0 -16529-4 0  9999
2 25778  86.3949   5.9776 0002170  89.9650 270.1795 14.34213217899422
IRIDIUM 91 [+]          
1 27372U 02005A   16194.20418662  .00000148  00000-0  45903-4 0  9996
2 27372  86.3968  69.9495 0001988  84.3937  65.7719 14.34218945762893
IRIDIUM 90 [S]          
1 27373U 02005B   16194.32327788  .00000248  00000-0  68297-4 0  9990
2 27373  86.4496 132.1607 0002522  84.2230 275.9258 14.42948563762347
IRIDIUM 94 [S]          
1 27374U 02005C   16194.49958613  .00000080  00000-0  21428-4 0  9995
2 27374  86.3943  37.7363 0003108  88.5647 294.4599 14.34219276767266
IRIDIUM 95 [+]          
1 27375U 02005D   16194.14338839  .00000158  00000-0  49485-4 0  9999
2 27375  86.3967  69.7570 0002305  86.0143 274.1316 14.34219231762178
IRIDIUM 96 [S]          
1 27376U 02005E   16194.26098579  .00000222  00000-0  72313-4 0  9995
2 27376  86.4005 101.2273 0002772 112.8154 247.3335 14.34218022767392
IRIDIUM 97 [+]          
1 27450U 02031A   16194.50832525  .00000210  00000-0  67874-4 0  9994
2 27450  86.3972 100.9246 0002048  85.0417 275.1012 14.34219862741545
IRIDIUM 98 [S]          
1 27451U 02031B   16194.45552616  .00000080  00000-0  21454-4 0  9998
2 27451  86.3978 164.2380 0002212  88.4951  62.1551 14.34217136742609
